GLOBALSTAR M057 [-]     
1 25943U 99058A   23276.44384886 -.00000049  00000+0  40124-3 0  9996
2 25943  51.9994 315.4586 0002875 165.3866 194.7067 12.24773023 90623
GLOBALSTAR M059 [-]     
1 25944U 99058B   23276.87709632 -.00000085  00000+0  90583-5 0  9990
2 25944  52.0002  90.6794 0000977 107.0033  43.1357 11.99953734499339
GLOBALSTAR M056 [-]     
1 25945U 99058C   23276.86312069 -.00000037  00000+0  59514-3 0  9998
2 25945  51.9943 108.6681 0001605  57.6382  47.0839 12.04769715 87616
GLOBALSTAR M031 [-]     
1 25946U 99058D   23276.67002821 -.00000093  00000+0 -26593-4 0  9995
2 25946  51.9981  38.7558 0001490  21.0345 352.3090 12.15995936 88813
GLOBALSTAR M039 [-]     
1 25961U 99062A   23276.55745580 -.00000086  00000+0  96702-4 0  9990
2 25961  51.9873   5.0304 0003125  57.8108 302.3061 12.62270873101612
GLOBALSTAR M034 [-]     
1 25962U 99062B   23276.89514258 -.00000051  00000+0  47032-3 0  9997
2 25962  51.9862 188.9425 0013897 309.2077 124.9528 11.79415488 64964
GLOBALSTAR M029 [-]     
1 25963U 99062C   23276.47842692 -.00000054  00000+0  40159-3 0  9994
2 25963  51.9829 340.3293 0002311 342.3104  31.3560 11.99868000 94372
GLOBALSTAR M061 [-]     
1 25964U 99062D   23276.57803907 -.00000037  00000+0  70352-3 0  9991
2 25964  51.9831   5.5532 0005702 230.7843 142.2921 11.76750835 47887
